STARLINK-35459          
1 65856U 25223C   25364.98392874  .00058485  00000+0  19714-2 0  9997
2 65856  53.1582 253.5130 0000997  81.1257 278.9857 15.30197531 13683
STARLINK-35489          
1 65857U 25223D   25365.38954035  .00040534  00000+0  13723-2 0  9996
2 65857  53.1580 251.7721 0002535  77.4374 282.6910 15.30219798 13745
STARLINK-35199          
1 65858U 25223E   25365.01969383  .00034681  00000+0  11772-2 0  9997
2 65858  53.1614 253.0219 0000962  94.9098 265.2013 15.30212047 13695
STARLINK-35408          
1 65859U 25223F   25365.38846796  .00055745  00000+0  18778-2 0  9997
2 65859  53.1592 251.7703 0001478  82.5837 277.5332 15.30241353 13749
STARLINK-35303          
1 65860U 25223G   25365.10822277  .00021598  00000+0  73890-3 0  9993
2 65860  53.1588 252.8660 0000856  95.1154 264.9944 15.30213505 13704
STARLINK-35258          
1 65861U 25223H   25364.85118448  .00039921  00000+0  13516-2 0  9990
2 65861  53.1576 254.0985 0001954 124.3493 235.7693 15.30226620 13661
STARLINK-35386          
1 65862U 25223J   25365.38742531  .00034032  00000+0  11555-2 0  9995
2 65862  53.1589 251.7611 0001228  91.3057 268.8085 15.30210597 13746
STARLINK-35469          
1 65863U 25223K   25364.99025874  .00030792  00000+0  10469-2 0  9998
2 65863  53.1582 253.5497 0001094  68.0520 292.0597 15.30216370 13684
STARLINK-35471          
1 65864U 25223L   25365.07762355  .00033649  00000+0  11428-2 0  9991
2 65864  53.1603 252.6714 0001146  88.7494 271.3638 15.30207299 13707
STARLINK-35475          
1 65865U 25223M   25365.39363953  .00025792  00000+0  87939-3 0  9999
2 65865  53.1594 251.0884 0000886 104.2796 255.8303 15.30219582 13756
STARLINK-35312          
1 65866U 25223N   25364.98814797  .00021479  00000+0  73504-3 0  9992
2 65866  53.1579 253.5331 0001122  87.6886 272.4243 15.30207733 13687
STARLINK-35456          
1 65867U 25223P   25365.02075333  .00045245  00000+0  15307-2 0  9997
2 65867  53.1607 253.0265 0001422  57.0472 303.0666 15.30195433 13690
STARLINK-35450          
1 65868U 25223Q   25364.98076359  .00037321  00000+0  12662-2 0  9998
2 65868  53.1588 253.4888 0001182  69.9042 290.2086 15.30192746 13688
STARLINK-35441          
1 65869U 25223R   25365.11772234  .00055197  00000+0  18611-2 0  9991
2 65869  53.1579 252.9223 0000996  75.5537 284.5574 15.30215319 13703
STARLINK-35433          
1 65870U 25223S   25365.08184550  .00038931  00000+0  13195-2 0  9996
2 65870  53.1614 252.6991 0001268  79.0076 281.1068 15.30205366 13717
STARLINK-35465          
1 65871U 25223T   25365.09450702  .00031798  00000+0  10805-2 0  9992
2 65871  53.1596 252.7780 0001228  67.1426 292.9704 15.30218020 13704
STARLINK-34108          
1 65872U 25223U   25365.01545701  .00068082  00000+0  22844-2 0  9991
2 65872  53.1606 252.9918 0000914  90.1097 270.0009 15.30276395 13695
STARLINK-35423          
1 65873U 25223V   25365.13554930  .00043679  00000+0  14774-2 0  9997
2 65873  53.1596 252.3198 0001134 111.3979 248.7143 15.30217741 13712
STARLINK-35425          
1 65874U 25223W   25365.10716995  .00046836  00000+0  15833-2 0  9991
2 65874  53.1589 252.8553 0000963  88.8497 271.2614 15.30205075 13707
STARLINK-34688          
1 65875U 25223X   25365.39270135  .00049339  00000+0  16662-2 0  9996
2 65875  53.1585 251.7913 0001419  83.6046 276.5116 15.30215220 13744
STARLINK-34438          
1 65876U 25223Y   25365.11560690  .00060641  00000+0  20408-2 0  9997
2 65876  53.1579 252.9053 0001117  74.9812 285.1312 15.30233637 13707
STARLINK-35462          
1 65877U 25223Z   25365.07234507  .00037619  00000+0  12753-2 0  9991
2 65877  53.1601 252.6323 0001198  74.0959 286.0174 15.30215026 13701
STARLINK-35453          
1 65878U 25223AA  25365.38320301  .00042824  00000+0  14490-2 0  9998
2 65878  53.1581 251.7282 0001319  63.0462 297.0674 15.30215009 13747
STARLINK-35418          
1 65879U 25223AB  25365.39164367  .00025274  00000+0  86237-3 0  9997
2 65879  53.1598 251.7783 0001395  90.9570 269.1590 15.30207018 13743
STARLINK-35445          
1 65880U 25223AC  25364.97864984  .00041887  00000+0  14181-2 0  9990
2 65880  53.1596 253.4696 0000912  83.7006 276.4098 15.30208432 13681
STARLINK-35464          
1 65881U 25223AD  25364.99342479  .00066952  00000+0  22515-2 0  9993
2 65881  53.1588 253.5617 0001207  86.4936 273.6203 15.30212755 13687
STARLINK-35270          
1 65882U 25224A   25365.17164738  .00061401  00000+0  20681-2 0  9992
2 65882  53.1633 329.6362 0001594  76.8205 283.2974 15.30200742 14330
STARLINK-35367          
1 65883U 25224B   25365.22429862  .00045706  00000+0  15463-2 0  9993
2 65883  53.1622 329.2466 0001274 103.8527 256.2616 15.30191009 14342
STARLINK-35384          
1 65884U 25224C   25365.17797788  .00068129  00000+0  22905-2 0  9996
2 65884  53.1625 329.6704 0001113  79.6326 280.4800 15.30212779 14335
STARLINK-35415          
1 65885U 25224D   25365.28327752  .00036585  00000+0  12413-2 0  9993
2 65885  53.1615 328.8992 0001146 111.6949 248.4174 15.30199591 14300
STARLINK-35413          
1 65886U 25224E   25365.34437286  .00042017  00000+0  14217-2 0  9996
2 65886  53.1603 328.5748 0001520  52.9716 307.1424 15.30223166 14317
STARLINK-35332          
1 65887U 25224F   25365.20424648  .00050621  00000+0  17096-2 0  9998
2 65887  53.1601 329.1229 0001245  76.6269 283.4870 15.30200596 14376
STARLINK-35362          
1 65888U 25224G   25365.31599235  .00026608  00000+0  90716-3 0  9995
2 65888  53.1618 329.1081 0001154  94.4095 265.7038 15.30203654 14350
STARLINK-35193          
1 65889U 25224H   25365.19485852  .00040291  00000+0  13650-2 0  9996
2 65889  53.1605 329.7680 0001139  84.5179 275.5951 15.30204027 14363
STARLINK-34542          
1 65890U 25224J   25365.32232429  .00064925  00000+0  21840-2 0  9993
2 65890  53.1610 329.1505 0001098  73.6547 286.4574 15.30216821 14405
STARLINK-34791          
1 65891U 25224K   25365.20119031  .00045434  00000+0  15360-2 0  9998
2 65891  53.1598 329.8082 0001277  87.9862 272.1285 15.30216910 14382
STARLINK-34853          
1 65892U 25224L   25365.23062904  .00059854  00000+0  20164-2 0  9997
2 65892  53.1619 329.2875 0001350  82.6524 277.4630 15.30206608 14329
STARLINK-34921          
1 65893U 25224M   25365.31915690  .00043769  00000+0  14808-2 0  9992
2 65893  53.1614 329.1197 0001179 108.9029 251.2099 15.30208552 14400
STARLINK-34672          
1 65894U 25224N   25365.31176999  .00045616  00000+0  15421-2 0  9999
2 65894  53.1626 329.0730 0001222  98.5782 261.5357 15.30215816 14407
STARLINK-34898          
1 65895U 25224P   25365.29910955  .00063055  00000+0  21220-2 0  9996
2 65895  53.1629 328.9930 0001319  83.9192 276.1959 15.30216947 14407
STARLINK-34906          
1 65896U 25224Q   25365.30543905  .00056926  00000+0  19188-2 0  9995
2 65896  53.1627 329.0315 0001287  71.6537 288.4604 15.30211773 14401
STARLINK-34934          
1 65897U 25224R   25365.28644365  .00054858  00000+0  18506-2 0  9990
2 65897  53.1612 328.9139 0001225 100.1293 259.9846 15.30200919 14352
STARLINK-34936          
1 65898U 25224S   25365.29278188  .00041640  00000+0  14106-2 0  9995
2 65898  53.1625 328.9551 0001200  68.1132 291.9996 15.30189753 14403
STARLINK-35272          
1 65899U 25224T   25365.34120433  .00029261  00000+0  99594-3 0  9991
2 65899  53.1602 328.5413 0001206  83.9285 276.1854 15.30207715 14409
STARLINK-35264          
1 65900U 25224U   25365.20740959  .00063176  00000+0  21273-2 0  9991
2 65900  53.1599 329.1319 0001198  95.4905 264.6233 15.30196666 14388
STARLINK-35249          
1 65901U 25224V   25365.18325066  .00035015  00000+0  11889-2 0  9990
2 65901  53.1617 329.6908 0001027  75.4189 284.6926 15.30197434 14365
STARLINK-35278          
1 65902U 25224W   25365.06318023  .00051991  00000+0  17557-2 0  9992
2 65902  53.1605 330.3679 0001606  36.3040 323.8069 15.30191279 14367
STARLINK-35210          
1 65903U 25224X   25365.20330140  .00048777  00000+0  16482-2 0  9997
2 65903  53.1591 329.8161 0001021 102.5006 257.6109 15.30199546 14364
STARLINK-35348          
1 65904U 25224Y   25365.28116536  .00042676  00000+0  14443-2 0  9994
2 65904  53.1612 328.8752 0001118  81.1726 278.9402 15.30211027 14352
STARLINK-35380          
1 65905U 25224Z   25365.30438211  .00041107  00000+0  13920-2 0  9992
2 65905  53.1628 329.0236 0001334  76.2905 283.8244 15.30207736 14355
STARLINK-35385          
1 65906U 25224AA  25365.29172300  .00032391  00000+0  11010-2 0  9998
2 65906  53.1623 328.9451 0001884  81.9697 278.1518 15.30199422 14385
STARLINK-35347          
1 65907U 25224AB  25365.28538779  .00038218  00000+0  12957-2 0  9999
2 65907  53.1603 328.9053 0001295  65.6616 294.4520 15.30203806 14384
STARLINK-35329          
1 65908U 25224AC  25365.29805323  .00065526  00000+0  22037-2 0  9995
2 65908  53.1629 328.9842 0001453  61.1553 298.9594 15.30219543 14392
STARLINK-35387          
1 65909U 25224AD  25365.13376714  .00017127  00000+0  58902-3 0  9991
2 65909  53.1592 330.0921 0001404  65.7405 294.3743 15.30202571 14328
STARLINK-35523          
1 65910U 25225A   25365.48500147  .00054265  00000+0  18295-2 0  9995
2 65910  53.1585 122.6307 0001068  88.1691 271.9432 15.30226241 13962
STARLINK-35160          
1 65911U 25225B   25365.49766990  .00017808  00000+0  61202-3 0  9996
2 65911  53.1580 122.7039 0002250  16.2746 343.8327 15.30194571 13960
STARLINK-35508          
1 65912U 25225C   25365.48816554  .00050910  00000+0  17179-2 0  9992
2 65912  53.1586 122.6472 0000873  82.7045 277.4055 15.30225409 13961
STARLINK-35472          
1 65913U 25225D   25365.48183182  .00044816  00000+0  15146-2 0  9997
2 65913  53.1577 122.6076 0001488 115.9516 244.1638 15.30233174 13963
STARLINK-35524          
1 65914U 25225E   25365.50599359  .00031582  00000+0  10735-2 0  9993
2 65914  53.1597 122.0432 0001043   7.3920 352.7096 15.30210794 13974
